HIMAWARI-8              
1 40267U 14060A   23255.54473400 -.00000285  00000+0  00000+0 0  9998
2 40267   0.0255 160.3156 0000934  64.5099 103.2249  1.00269221 32643
